[{"OBJECT_NAME":"WEINA 1A","OBJECT_ID":"2018-011A","EPOCH":"2026-03-09T00:13:48.801504","MEAN_MOTION":15.00525085,"ECCENTRICITY":0.00035503,"INCLINATION":34.9964,"RA_OF_ASC_NODE":50.6465,"ARG_OF_PERICENTER":253.6699,"MEAN_ANOMALY":106.3619,"EPHEMERIS_TYPE":0,"CLASSIFICATION_TYPE":"U","NORAD_CAT_ID":43169,"ELEMENT_SET_NO":999,"REV_AT_EPOCH":44306,"BSTAR":0.00031000167,"MEAN_MOTION_DOT":3.96e-5,"MEAN_MOTION_DDOT":0},{"OBJECT_NAME":"STARLINK-4392","OBJECT_ID":"2022-099AA","EPOCH":"2026-03-09T21:33:28.957248","MEAN_MOTION":15.01259695,"ECCENTRICITY":0.00025019,"INCLINATION":97.6024,"RA_OF_ASC_NODE":190.3939,"ARG_OF_PERICENTER":177.021,"MEAN_ANOMALY":183.103,"EPHEMERIS_TYPE":0,"CLASSIFICATION_TYPE":"U","NORAD_CAT_ID":53489,"ELEMENT_SET_NO":999,"REV_AT_EPOCH":19601,"BSTAR":6.3338937e-5,"MEAN_MOTION_DOT":7.55e-6,"MEAN_MOTION_DDOT":0}]
